[{"OBJECT_NAME":"STARLINK-32805","OBJECT_ID":"2025-014F","EPOCH":"2026-03-09T22:56:23.105472","MEAN_MOTION":15.27594193,"ECCENTRICITY":0.0001272,"INCLINATION":43.0028,"RA_OF_ASC_NODE":153.277,"ARG_OF_PERICENTER":281.2805,"MEAN_ANOMALY":78.7904,"EPHEMERIS_TYPE":0,"CLASSIFICATION_TYPE":"U","NORAD_CAT_ID":62740,"ELEMENT_SET_NO":999,"REV_AT_EPOCH":6329,"BSTAR":0.0010968222,"MEAN_MOTION_DOT":0.00030056,"MEAN_MOTION_DDOT":0},{"OBJECT_NAME":"COSMOS 1953","OBJECT_ID":"1988-050A","EPOCH":"2026-03-09T18:09:26.993952","MEAN_MOTION":15.28528086,"ECCENTRICITY":0.00124769,"INCLINATION":82.5105,"RA_OF_ASC_NODE":158.18,"ARG_OF_PERICENTER":122.2454,"MEAN_ANOMALY":237.9996,"EPHEMERIS_TYPE":0,"CLASSIFICATION_TYPE":"U","NORAD_CAT_ID":19210,"ELEMENT_SET_NO":999,"REV_AT_EPOCH":3779,"BSTAR":0.00029210954,"MEAN_MOTION_DOT":8.158e-5,"MEAN_MOTION_DDOT":0}]
